[{"OBJECT_NAME":"STARLINK-30106","OBJECT_ID":"2023-056C","EPOCH":"2026-03-09T22:00:01.999584","MEAN_MOTION":15.26749083,"ECCENTRICITY":0.00016875,"INCLINATION":43.003,"RA_OF_ASC_NODE":207.2618,"ARG_OF_PERICENTER":291.4212,"MEAN_ANOMALY":266.2264,"EPHEMERIS_TYPE":0,"CLASSIFICATION_TYPE":"U","NORAD_CAT_ID":56288,"ELEMENT_SET_NO":999,"REV_AT_EPOCH":577,"BSTAR":-0.00051497468,"MEAN_MOTION_DOT":-0.00014051,"MEAN_MOTION_DDOT":0},{"OBJECT_NAME":"KUIPER-00226","OBJECT_ID":"2026-030X","EPOCH":"2026-03-09T15:01:51.726432","MEAN_MOTION":15.30655594,"ECCENTRICITY":0.0017713,"INCLINATION":51.8814,"RA_OF_ASC_NODE":220.1252,"ARG_OF_PERICENTER":64.2781,"MEAN_ANOMALY":296.003,"EPHEMERIS_TYPE":0,"CLASSIFICATION_TYPE":"U","NORAD_CAT_ID":67785,"ELEMENT_SET_NO":999,"REV_AT_EPOCH":507,"BSTAR":0.001553,"MEAN_MOTION_DOT":0.00046834,"MEAN_MOTION_DDOT":0}]
